*******************************************************************************
JPL/HORIZONS                135 Hertha (A874 DA)           2020-Jun-20 08:19:02
Rec #:     135 (+COV) Soln.date: 2020-Feb-22_15:18:13   # obs: 2717 (1885-2020)
 
IAU76/J2000 helio. ecliptic osc. elements (au, days, deg., period=Julian yrs):
 
  EPOCH=  2455491.5 ! 2010-Oct-22.00 (TDB)         Residual RMS= .31903
   EC= .2057398240144737   QR= 1.929537697472823   TP= 2455920.9737660773
   OM= 343.8385520037814   W=  340.0921083619144   IN= 2.304560231669396
   A= 2.429352189386346    MA= 248.2094753774685   ADIST= 2.929166681299869
   PER= 3.78655            N= .260296508           ANGMOM= .026238251
   DAN= 1.94942            DDN= 2.88452            L= 323.9455083
   B= -.7845362            MOID= .91754901         TP= 2011-Dec-25.4737660773
 
Asteroid physical parameters (km, seconds, rotational period in hours):
   GM= n.a.                RAD= 39.62              ROTPER= 8.403
   H= 8.2                  G= .150                 B-V= .698
                           ALBEDO= .1436           STYP= Xk
 
ASTEROID comments: 
1: soln ref.= JPL#106, OCC=0
2: source=ORB
*******************************************************************************
 
 
*******************************************************************************
Ephemeris / WWW_USER Sat Jun 20 08:19:02 2020 Pasadena, USA      / Horizons
*******************************************************************************
Target body name: 135 Hertha (A874 DA)            {source: JPL#106}
Center body name: Solar System Barycenter (0)     {source: DE431}
Center-site name: BODY CENTER
*******************************************************************************
Start time      : A.D. 1969-Jun-28 00:00:00.0000 TDB
Stop  time      : A.D. 2071-May-04 00:00:00.0000 TDB
Step-size       : 7200 minutes
*******************************************************************************
Center geodetic : 0.00000000,0.00000000,0.0000000 {E-lon(deg),Lat(deg),Alt(km)}
Center cylindric: 0.00000000,0.00000000,0.0000000 {E-lon(deg),Dxy(km),Dz(km)}
Center radii    : (undefined)                                                  
Small perturbers: Yes                             {source: SB431-N16}
Output units    : AU-D
Output type     : GEOMETRIC cartesian states
Output format   : 2 (position and velocity)
Reference frame : Ecliptic of J2000.0
*******************************************************************************
Initial IAU76/J2000 heliocentric ecliptic osculating elements (au, days, deg.):
  EPOCH=  2455491.5 ! 2010-Oct-22.00 (TDB)         Residual RMS= .31903        
   EC= .2057398240144737   QR= 1.929537697472823   TP= 2455920.9737660773      
   OM= 343.8385520037814   W=  340.0921083619144   IN= 2.304560231669396       
  Equivalent ICRF heliocentric equatorial cartesian coordinates (au, au/d):
   X=-2.628213505923208E+00  Y=-5.150169839756471E-01  Z=-2.799745461586781E-01
  VX= 3.817479038805809E-03 VY=-8.250657050388950E-03 VZ=-3.915015173080835E-03
Asteroid physical parameters (km, seconds, rotational period in hours):        
   GM= n.a.                RAD= 39.62              ROTPER= 8.403               
   H= 8.2                  G= .150                 B-V= .698                   
                           ALBEDO= .1436           STYP= Xk                    
*******************************************************************************
            JDTDB,            Calendar Date (TDB),        delta-T,                      X,                      Y,                      Z,                     VX,                     VY,                     VZ,
******************************************************************************************************************************************************************************************************************
$$SOE
2467980.500000000, A.D. 2044-Dec-31 00:00:00.0000,      69.183881, -2.381902476594608E+00, -1.024672607039765E+00, -6.702952483515642E-02,  5.864476617117040E-03, -8.477920707636300E-03, -2.565274842780382E-04,
2467985.500000000, A.D. 2045-Jan-05 00:00:00.0000,      69.184026, -2.352075452790979E+00, -1.066840103616067E+00, -6.829779552864160E-02,  6.066303653152991E-03, -8.388302777077682E-03, -2.507514223955339E-04,
2467990.500000000, A.D. 2045-Jan-10 00:00:00.0000,      69.184171, -2.321239802315144E+00, -1.108547821062241E+00, -6.953674377330520E-02,  6.267913198334973E-03, -8.293996578298544E-03, -2.447981899026286E-04,
2467995.500000000, A.D. 2045-Jan-15 00:00:00.0000,      69.184316, -2.289396827472476E+00, -1.149772130425087E+00, -7.074547901686443E-02,  6.469218598856751E-03, -8.194926979744371E-03, -2.386659120226992E-04,
2468000.500000000, A.D. 2045-Jan-20 00:00:00.0000,      69.184460, -2.256548274692446E+00, -1.190489025892015E+00, -7.192310141255996E-02,  6.670128827819837E-03, -8.091018389444224E-03, -2.323527468933930E-04,
2468005.500000000, A.D. 2045-Jan-25 00:00:00.0000,      69.184600, -2.222696356863595E+00, -1.230674122802805E+00, -7.306870200143330E-02,  6.870548296741445E-03, -7.982194882653022E-03, -2.258568927354814E-04,
2468010.500000000, A.D. 2045-Jan-30 00:00:00.0000,      69.184734, -2.187843776620828E+00, -1.270302656331957E+00, -7.418136293175928E-02,  7.070376663209262E-03, -7.868380342611184E-03, -2.191765955496509E-04,
2468015.500000000, A.D. 2045-Feb-04 00:00:00.0000,      69.184860, -2.151993750602933E+00, -1.309349480909740E+00, -7.526015771833722E-02,  7.269508635226145E-03, -7.749498615430916E-03, -2.123101573682803E-04,
2468020.500000000, A.D. 2045-Feb-09 00:00:00.0000,      69.184981, -2.115150034695556E+00, -1.347789070455180E+00, -7.630415154450534E-02,  7.467833772765419E-03, -7.625473680173387E-03, -2.052559451007723E-04,
2468025.500000000, A.D. 2045-Feb-14 00:00:00.0000,      69.185096, -2.077316950272257E+00, -1.385595519499671E+00, -7.731240160995319E-02,  7.665236287086782E-03, -7.496229835193774E-03, -1.980124000123888E-04,
2468030.500000000, A.D. 2045-Feb-19 00:00:00.0000,      69.185204, -2.038499411443298E+00, -1.422742545285209E+00, -7.828395752758563E-02,  7.861594838436186E-03, -7.361691901826914E-03, -1.905780478733952E-04,
2468035.500000000, A.D. 2045-Feb-24 00:00:00.0000,      69.185301, -1.998702953318404E+00, -1.459203490926606E+00, -7.921786177287439E-02,  8.056782332901729E-03, -7.221785446463589E-03, -1.829515098080975E-04,
2468040.500000000, A.D. 2045-Mar-01 00:00:00.0000,      69.185387, -1.957933761285400E+00, -1.494951329732214E+00, -8.011315018925794E-02,  8.250665719389122E-03, -7.076437022055911E-03, -1.751315138699831E-04,
2468045.500000000, A.D. 2045-Mar-06 00:00:00.0000,      69.185461, -1.916198701301237E+00, -1.529958670783097E+00, -8.096885255331154E-02,  8.443105787886549E-03, -6.925574430205624E-03, -1.671169073859285E-04,
2468050.500000000, A.D. 2045-Mar-11 00:00:00.0000,      69.185526, -1.873505351186205E+00, -1.564197765877058E+00, -8.178399320372018E-02,  8.633956970081673E-03, -6.769127005276486E-03, -1.589066701454269E-04,
2468055.500000000, A.D. 2045-Mar-16 00:00:00.0000,      69.185580, -1.829862032907410E+00, -1.597640517951413E+00, -8.255759173845270E-02,  8.823067143183193E-03, -6.607025921992905E-03, -1.504999284990035E-04,
2468060.500000000, A.D. 2045-Mar-21 00:00:00.0000,      69.185623, -1.785277845832808E+00, -1.630258491104644E+00, -8.328866378470384E-02,  9.010277438128799E-03, -6.439204527526142E-03, -1.418959703599555E-04,
2468065.500000000, A.D. 2045-Mar-26 00:00:00.0000,      69.185653, -1.739762700929609E+00, -1.662022922341304E+00, -8.397622184603568E-02,  9.195422053964163E-03, -6.265598698838798E-03, -1.330942610802920E-04,
2468070.500000000, A.D. 2045-Mar-31 00:00:00.0000,      69.185669, -1.693327355871112E+00, -1.692904735168607E+00, -8.461927623107217E-02,  9.378328080437880E-03, -6.086147226182268E-03, -1.240944601968732E-04,
2468075.500000000, A.D. 2045-Apr-05 00:00:00.0000,      69.185672, -1.645983451005518E+00, -1.722874555177996E+00, -8.521683606813459E-02,  9.558815330992742E-03, -5.900792223760123E-03, -1.148964390673089E-04,
2468080.500000000, A.D. 2045-Apr-10 00:00:00.0000,      69.185664, -1.597743546128971E+00, -1.751902727750230E+00, -8.576791041036852E-02,  9.736696188480458E-03, -5.709479568673532E-03, -1.055002994395026E-04,
2468085.500000000, A.D. 2045-Apr-15 00:00:00.0000,      69.185644, -1.548621157993272E+00, -1.779959338028373E+00, -8.627150943617420E-02,  9.911775465969996E-03, -5.512159369320858E-03, -9.590639301238140E-05,
2468090.500000000, A.D. 2045-Apr-20 00:00:00.0000,      69.185614, -1.498630798466878E+00, -1.807014233308581E+00, -8.672664574999520E-02,  1.008385028503184E-02, -5.308786464266958E-03, -8.611534202075198E-05,
2468095.500000000, A.D. 2045-Apr-25 00:00:00.0000,      69.185571, -1.447788013255491E+00, -1.833037048002853E+00, -8.713233578856905E-02,  1.025270997407349E-02, -5.099320952225215E-03, -7.612806082699742E-05,
2468100.500000000, A.D. 2045-Apr-30 00:00:00.0000,      69.185514, -1.396109421074733E+00, -1.857997231330085E+00, -8.748760133754169E-02,  1.041813598970862E-02, -4.883728753420156E-03, -6.594577846615706E-05,
2468105.500000000, A.D. 2045-May-05 00:00:00.0000,      69.185446, -1.343612753151355E+00, -1.881864077892493E+00, -8.779147116306413E-02,  1.057990186457223E-02, -4.661982202366623E-03, -5.557006208146407E-05,
2468110.500000000, A.D. 2045-May-10 00:00:00.0000,      69.185369, -1.290316892911509E+00, -1.904606761294236E+00, -8.804298276265456E-02,  1.073777318532587E-02, -4.434060671928409E-03, -4.500284118569407E-05,
2468115.500000000, A.D. 2045-May-15 00:00:00.0000,      69.185284, -1.236241915695212E+00, -1.926194370957875E+00, -8.824118423928481E-02,  1.089150760487012E-02, -4.199951228322957E-03, -3.424643267462806E-05,
